LEMUR-2-PETERG          
1 42841U 17042S   26068.48235713  .00023240  00000+0  81076-3 0  9993
2 42841  97.3980 253.6596 0003700 341.6938  18.4169 15.29611459473171
STARLINK-35626          
1 66233U 25244AD  26068.74494057  .00026339  00000+0  89801-3 0  9990
2 66233  53.1561 229.9556 0000822  75.7174 284.3918 15.30209034 21661
